      2.10          N: GNSS NAV DATA                        RINEX VERSION / TYPE
fic2rin                                 01/04/2023 00:17:06 PGM / RUN BY / DATE
                                                            END OF HEADER
30 23  1  3 13 59 44.0 -.534129794687D-03  .795807864051D-12  .000000000000D+00
     .250000000000D+02 -.534375000000D+01  .533200781381D-08  .227505971348D+00
    -.309199094772D-06  .600817392115D-02  .691600143909D-05  .515365396118D+04
     .223184000000D+06  .242143869400D-07  .175193476437D+01  .298023223877D-07
     .935148270165D+00  .229156250000D+03 -.266641151493D+01 -.837999191744D-08
    -.539665336370D-09  .100000000000D+01  .224300000000D+04  .000000000000D+00
     .240000000000D+01  .000000000000D+00  .372529029846D-08  .250000000000D+02
     .216000000000D+06  .400000000000D+01
5  23  1  3 14  0  0.0 -.110569410026D-03 -.147792889038D-11  .000000000000D+00
     .160000000000D+02 -.848437500000D+02  .420196074282D-08 -.276139502319D+01
    -.456720590591D-05  .581627443898D-02  .974349677563D-05  .515359281921D+04
     .223200000000D+06  .117346644402D-06 -.398263104823D+00 -.353902578354D-07
     .964293179527D+00  .191875000000D+03  .113780463811D+01 -.765889045210D-08
     .293226499775D-09  .100000000000D+01  .224300000000D+04  .000000000000D+00
     .240000000000D+01  .000000000000D+00 -.111758708954D-07  .160000000000D+02
     .216000000000D+06  .400000000000D+01
3  23  1  3 14  0  0.0 -.374004710466D-03  .136424205266D-11  .000000000000D+00
     .190000000000D+02 -.735312500000D+02  .396802242692D-08 -.176201086134D+00
    -.389665365219D-05  .443368288688D-02  .105444341898D-04  .515375208664D+04
     .223200000000D+06  .149011611938D-07 -.353610271961D+00  .689178705215D-07
     .977285138477D+00  .189562500000D+03  .103458293636D+01 -.769853496060D-08
     .348228790841D-09  .100000000000D+01  .224300000000D+04  .000000000000D+00
     .240000000000D+01  .000000000000D+00  .186264514923D-08  .190000000000D+02
     .216000000000D+06  .400000000000D+01
2  23  1  3 14  0  0.0 -.629468820989D-03  .216004991671D-11  .000000000000D+00
     .700000000000D+02 -.759375000000D+02  .453983195937D-08  .678627216119D-03
    -.405125319958D-05  .201137671247D-01  .298395752907D-05  .515368841934D+04
     .223200000000D+06 -.316649675369D-06 -.148146951605D+01 -.188127160072D-06
     .966748668505D+00  .328250000000D+03 -.134594403910D+01 -.855464204946D-08
    -.107504477993D-09  .100000000000D+01  .224300000000D+04  .000000000000D+00
     .240000000000D+01  .000000000000D+00 -.176951289177D-07  .700000000000D+02
     .216000000000D+06  .400000000000D+01
1  23  1  3 14  0  0.0  .229115132242D-03 -.488853402203D-11  .000000000000D+00
     .730000000000D+02 -.952812500000D+02  .394266422779D-08  .966097214993D+00
    -.502355396748D-05  .121691320091D-01  .397302210331D-05  .515365646362D+04
     .223200000000D+06 -.117346644402D-06 -.138554298886D+01  .104308128357D-06
     .989023265452D+00  .319281250000D+03  .937610283758D+00 -.813998192006D-08
    -.274297139863D-09  .100000000000D+01  .224300000000D+04  .000000000000D+00
     .240000000000D+01  .000000000000D+00  .465661287308D-08  .730000000000D+02
     .216000000000D+06  .400000000000D+01
10 23  1  3 14  0  0.0 -.188583508134D-04 -.159161572810D-11  .000000000000D+00
     .210000000000D+02 -.689687500000D+02  .393802117725D-08 -.108766728441D+01
    -.354647636414D-05  .836515915580D-02  .981427729130D-05  .515368786430D+04
     .223200000000D+06  .199303030968D-06 -.356289201195D+00  .428408384323D-07
     .977049422876D+00  .196375000000D+03 -.246977518947D+01 -.761853162814D-08
     .283583240952D-09  .100000000000D+01  .224300000000D+04  .000000000000D+00
     .240000000000D+01  .000000000000D+00  .232830643654D-08  .210000000000D+02
     .216000000000D+06  .400000000000D+01
6  23  1  3 14  0  0.0  .552298966795D-03  .659383658785D-11  .000000000000D+00
     .150000000000D+02 -.105468750000D+03  .384980321690D-08  .124553967327D+01
    -.543333590031D-05  .283035251778D-02  .329874455929D-05  .515358843422D+04
     .223200000000D+06  .689178705215D-07 -.139384261027D+01 -.335276126862D-07
     .988287473249D+00  .328312500000D+03 -.892619007725D+00 -.796247452617D-08
    -.163221084528D-09  .100000000000D+01  .224300000000D+04  .000000000000D+00
     .240000000000D+01  .000000000000D+00  .372529029846D-08  .150000000000D+02
     .216000000000D+06  .400000000000D+01
8  23  1  3 14  0  0.0 -.101800542325D-03 -.181898940355D-11  .000000000000D+00
     .720000000000D+02  .878125000000D+02  .447911514455D-08 -.305908648481D+01
     .458210706711D-05  .807758059818D-02  .271014869213D-05  .515364241409D+04
     .223200000000D+06 -.484287738800D-07 -.247370830324D+01 -.819563865662D-07
     .960851025451D+00  .330250000000D+03  .184872714451D+00 -.817748348215D-08
     .200722646618D-09  .100000000000D+01  .224300000000D+04  .000000000000D+00
     .240000000000D+01  .000000000000D+00  .512227416039D-08  .720000000000D+02
     .216000000000D+06  .400000000000D+01
7  23  1  3 14  0  0.0  .264689791948D-03 -.591171556152D-11  .000000000000D+00
     .720000000000D+02 -.112500000000D+01  .508306887308D-08  .358201878809D+00
     .111758708954D-06  .165713501628D-01  .719353556633D-05  .515359889412D+04
     .223200000000D+06 -.113621354103D-06  .174363916744D+01  .171363353729D-06
     .950011748991D+00  .236250000000D+03 -.223232229097D+01 -.840392148563D-08
    -.577524056195D-09  .100000000000D+01  .224300000000D+04  .000000000000D+00
     .240000000000D+01  .000000000000D+00 -.111758708954D-07  .720000000000D+02
     .216000000000D+06  .400000000000D+01
4  23  1  3 14  0  0.0 -.560581684113D-04  .750333128963D-11  .000000000000D+00
     .193000000000D+03  .721875000000D+01  .482484383125D-08  .281425207619D+01
     .447034835815D-06  .225211982615D-02  .672228634357D-05  .515371671486D+04
     .223200000000D+06 -.447034835815D-07  .727201545720D+00 -.745058059692D-08
     .962134013384D+00  .252843750000D+03 -.309054590173D+01 -.797033199632D-08
     .382515933324D-09  .100000000000D+01  .224300000000D+04  .000000000000D+00
     .240000000000D+01  .000000000000D+00 -.465661287308D-08  .961000000000D+03
     .216000000000D+06  .400000000000D+01
15 23  1  3 14  0  0.0  .145100057125D-05  .329691829393D-11  .000000000000D+00
     .720000000000D+02  .456250000000D+01  .535665169747D-08  .222665296407D+01
     .484287738800D-07  .147312796907D-01  .729411840439D-05  .515365306282D+04
     .223200000000D+06  .651925802231D-07  .557088381470D+00 -.311061739922D-06
     .931629456255D+00  .222031250000D+03  .117139654194D+01 -.806462163815D-08
     .476448417418D-09  .100000000000D+01  .224300000000D+04  .000000000000D+00
     .240000000000D+01  .000000000000D+00 -.107102096081D-07  .720000000000D+02
     .216000000000D+06  .400000000000D+01
13 23  1  3 14  0  0.0  .453102402389D-03  .648014975013D-11  .000000000000D+00
     .420000000000D+02  .859375000000D+01  .462412118464D-08  .272057383171D+01
     .370666384697D-06  .673546257894D-02  .648200511932D-05  .515366070747D+04
     .223200000000D+06  .000000000000D+00  .829646612054D+00 -.100582838058D-06
     .969199935502D+00  .258500000000D+03  .947457861217D+00 -.777675250439D-08
     .310012913282D-09  .100000000000D+01  .224300000000D+04  .000000000000D+00
     .240000000000D+01  .000000000000D+00 -.116415321827D-07  .420000000000D+02
     .216000000000D+06  .400000000000D+01
31 23  1  3 14  0  0.0 -.205233227462D-03 -.113686837722D-11  .000000000000D+00
     .700000000000D+02 -.462500000000D+01  .490163274411D-08 -.217640993941D+00
    -.175088644028D-06  .107854952803D-01  .709854066372D-05  .515363126945D+04
     .223200000000D+06  .726431608200D-07  .176302934198D+01  .134110450745D-06
     .954147791445D+00  .238062500000D+03  .489489871641D+00 -.822284251440D-08
    -.464305054455D-09  .100000000000D+01  .224300000000D+04  .000000000000D+00
     .240000000000D+01  .000000000000D+00 -.135041773319D-07  .700000000000D+02
     .216000000000D+06  .400000000000D+01
32 23  1  3 14  0  0.0 -.351804308593D-03 -.127329258248D-10  .000000000000D+00
     .360000000000D+02  .543750000000D+01  .481412909923D-08 -.236703285818D+01
     .320374965668D-06  .640584994107D-02  .676885247231D-05  .515368495750D+04
     .223200000000D+06  .121071934700D-06  .684224523555D+00 -.409781932831D-07
     .959060068473D+00  .247093750000D+03 -.228246105053D+01 -.795497421375D-08
     .430375069706D-09  .100000000000D+01  .224300000000D+04  .000000000000D+00
     .240000000000D+01  .000000000000D+00  .465661287308D-09  .360000000000D+02
     .216000000000D+06  .400000000000D+01
29 23  1  3 14  0  0.0 -.578198116273D-03 -.238742359215D-11  .000000000000D+00
     .820000000000D+02  .738125000000D+02  .419088885306D-08 -.312027178414D+01
     .382401049137D-05  .211545417551D-02  .238418579102D-05  .515360055351D+04
     .223200000000D+06  .745058059692D-08 -.237315401902D+01  .391155481339D-07
     .978420522365D+00  .343500000000D+03  .244186533992D+01 -.806462163815D-08
     .135362781260D-09  .100000000000D+01  .224300000000D+04  .000000000000D+00
     .240000000000D+01  .000000000000D+00 -.102445483208D-07  .820000000000D+02
     .216000000000D+06  .400000000000D+01
24 23  1  3 14  0  0.0 -.136108137667D-04 -.169393388205D-10  .000000000000D+00
     .720000000000D+02 -.136562500000D+02  .552273004387D-08  .124980172417D+01
    -.620260834694D-06  .136405739468D-01  .692158937454D-05  .515365813828D+04
     .223200000000D+06 -.216066837311D-06  .165539693345D+01  .108033418655D-06
     .933543481216D+00  .235031250000D+03  .876813794403D+00 -.853606984729D-08
    -.529307762079D-09  .100000000000D+01  .224300000000D+04  .000000000000D+00
     .240000000000D+01  .000000000000D+00  .279396772385D-08  .720000000000D+02
     .216000000000D+06  .400000000000D+01
